ONEWEB-0415             
1 51624U 22012C   25051.72836356  .00000238  00000+0  64572-3 0  9997
2 51624  87.8895 132.2343 0001705  95.9947 264.1375 13.10376844147512
ONEWEB-0416             
1 51625U 22012D   25051.73999613  .00000549  00000+0  15364-2 0  9994
2 51625  87.8899 132.2413 0001837 103.0791 257.0542 13.10374561147565
ONEWEB-0422             
1 51626U 22012E   25051.64020401 -.00000396  00000+0 -10540-2 0  9998
2 51626  87.9038 101.7868 0002617 107.7381 252.4036 13.17647855151670
ONEWEB-0423             
1 51627U 22012F   25051.63345248 -.00000312  00000+0 -83579-3 0  9998
2 51627  87.9041 101.7928 0001922 103.0424 257.0922 13.17647620151571
ONEWEB-0425             
1 51628U 22012G   25051.74995286  .00000613  00000+0  17202-2 0  9995
2 51628  87.8891 132.2144 0001558 112.7721 247.3571 13.10372598147563
ONEWEB-0428             
1 51629U 22012H   25051.73003860  .00000199  00000+0  53449-3 0  9996
2 51629  87.8900 132.2377 0002106 103.8880 256.2481 13.10375756147513
ONEWEB-0431             
1 51630U 22012J   25051.77635816 -.00000514  00000+0 -15102-2 0  9990
2 51630  87.8886 132.2091 0002384  96.3289 263.8110 13.10370808147581
ONEWEB-0434             
1 51631U 22012K   25051.75327411  .00000524  00000+0  14654-2 0  9998
2 51631  87.8893 132.2454 0001371 122.4305 237.6955 13.10371233147565
